NUSAT-49 (KLARA DAN VO*)
1 60500U 24149AJ  26068.79810190  .00012912  00000+0  43568-3 0  9991
2 60500  97.3807 150.7380 0001132 286.7761  73.3356 15.30828857 86935
STARLINK-35509          
1 66199U 25243Y   26068.80712287  .00027681  00000+0  94307-3 0  9993
2 66199  53.1599 244.5686 0000963  64.9004 295.2097 15.30205868 20678
